STARLINK-2247
1 28446C 21040U   21325.13679026  .00003561  00000-0  23853-3 0  3252
2 28446  53.0554  27.6066 0001283  61.2137 189.7618 15.06400774    16
